ONEWEB-0522             
1 54140U 22138AD  26196.80121368 -.00000010  00000+0 -56421-4 0  9997
2 54140  87.9196 299.2620 0001955 105.7220 254.4128 13.19723757180586
ONEWEB-0523             
1 54141U 22138AE  26196.74113623  .00000038  00000+0  61462-4 0  9995
2 54141  87.9188 268.7512 0002290  78.7246 281.4145 13.20772692183079
ONEWEB-0524             
1 54142U 22138AF  26196.73103985 -.00000002  00000+0 -35857-4 0  9997
2 54142  87.9187 268.7500 0002896  91.6655 268.4810 13.20772621183072
ONEWEB-0525             
1 54143U 22138AG  26196.82017159 -.00000038  00000+0 -12696-3 0  9999
2 54143  87.9195 299.2649 0002233 110.3266 249.8107 13.19723566180607
ONEWEB-0526             
1 54144U 22138AH  26196.77752889  .00000111  00000+0  24371-3 0  9993
2 54144  87.9194 299.2742 0002149 103.0642 257.0731 13.19723855180575
ONEWEB-0529             
1 54145U 22138AJ  26196.78069654  .00000071  00000+0  14565-3 0  9995
2 54145  87.9187 299.2805 0002104 107.0926 253.0438 13.19726354180597
ONEWEB-0531             
1 54146U 22138AK  26196.18726682 -.00000012  00000+0 -62073-4 0  9996
2 54146  87.9186 268.8558 0002552  80.8268 279.3154 13.20773150183001
ONEWEB-0535             
1 54147U 22138AL  26196.81384722 -.00000023  00000+0 -89763-4 0  9999
2 54147  87.9195 299.2601 0001939  92.4854 267.6501 13.19726499180619
ONEWEB-0536             
1 54148U 22138AM  26196.24955850  .00000078  00000+0  15976-3 0  9995
2 54148  87.9175 268.8622 0002782  80.0995 280.0453 13.20772378183009
ONEWEB-0527             
1 54642U 22166A   26196.18431184  .00000006  00000+0 -17356-4 0  9994
2 54642  87.9233 238.4249 0002090  98.2581 261.8790 13.21827112175230
ONEWEB-0528             
1 54643U 22166B   26196.48794005 -.00000021  00000+0 -82813-4 0  9990
2 54643  87.9235 238.3670 0002189 102.2015 257.9365 13.21825615175282
ONEWEB-0539             
1 54644U 22166C   26196.52577909  .00000039  00000+0  62705-4 0  9993
2 54644  87.9239 238.3330 0001879  95.9811 264.1537 13.21823912175286
ONEWEB-0540             
1 54645U 22166D   26196.53265026 -.00000004  00000+0 -40766-4 0  9996
2 54645  87.9234 238.3603 0002026  94.8664 265.2701 13.21824094175270
ONEWEB-0542             
1 54646U 22166E   26196.53588654 -.00000027  00000+0 -97777-4 0  9991
2 54646  87.9242 238.3303 0001774  95.4741 264.6595 13.21826309175285
ONEWEB-0545             
1 54647U 22166F   26196.80334802 -.00000008  00000+0 -51061-4 0  9991
2 54647  87.9234 238.2866 0001531  89.4575 270.6734 13.21825675175286
ONEWEB-0580             
1 54648U 22166G   26196.47530867  .00000025  00000+0  28510-4 0  9994
2 54648  87.9230 238.3520 0001795  88.9818 271.1521 13.21824158175282
ONEWEB-0582             
1 54649U 22166H   26196.51735812  .00000169  00000+0  37740-3 0  9990
2 54649  87.9236 238.3356 0001681  91.8737 268.2590 13.21822616175261
ONEWEB-0583             
1 54650U 22166J   26196.52915833  .00000119  00000+0  25553-3 0  9990
2 54650  87.9232 238.3569 0001981  94.8524 265.2836 13.21826497175277
ONEWEB-0584             
1 54651U 22166K   26196.54933300  .00000001  00000+0 -29652-4 0  9998
2 54651  87.9227 238.3380 0002040  95.5753 264.5614 13.21825073175266
ONEWEB-0585             
1 54652U 22166L   26196.49717621  .00000016  00000+0  82468-5 0  9999
2 54652  87.9235 238.3360 0002234  98.4264 261.7123 13.21823437175264
ONEWEB-0586             
1 54653U 22166M   26196.51063879  .00000032  00000+0  45908-4 0  9997
2 54653  87.9234 238.3585 0001879  96.2271 263.9077 13.21823982175268
ONEWEB-0587             
1 54654U 22166N   26196.52074999  .00000135  00000+0  29582-3 0  9997
2 54654  87.9244 238.3329 0002429  98.4895 261.6515 13.21826377175425
ONEWEB-0589             
1 54655U 22166P   26196.50729150 -.00000007  00000+0 -48798-4 0  9993
2 54655  87.9234 238.3440 0001421  78.6851 281.4442 13.21825794175287
ONEWEB-0590             
1 54656U 22166Q   26196.15388775  .00000045  00000+0  76776-4 0  9996
2 54656  87.9242 238.4076 0002271  84.7254 275.4139 13.21825754175228
ONEWEB-0591             
1 54657U 22166R   26196.54427218 -.00000265  00000+0 -67209-3 0  9992
2 54657  87.9232 238.3419 0002080  93.0802 267.0570 13.21825245175308
ONEWEB-0592             
1 54658U 22166S   26196.54764836  .00000079  00000+0  16067-3 0  9990
2 54658  87.9239 238.3224 0002032  96.9759 263.1606 13.21823751175183
ONEWEB-0593             
1 54659U 22166T   26196.49382542  .00000064  00000+0  12226-3 0  9992
2 54659  87.9235 238.3424 0001915  98.1276 262.0075 13.21826422175286
ONEWEB-0594             
1 54660U 22166U   26196.51400820  .00000025  00000+0  28083-4 0  9993
2 54660  87.9236 238.3544 0002229 100.6546 259.4839 13.21824545175305
ONEWEB-0595             
1 54661U 22166V   26196.18768283 -.00000024  00000+0 -89883-4 0  9993
2 54661  87.9242 238.4022 0002304  97.2070 262.9326 13.21824868175232
ONEWEB-0596             
1 54662U 22166W   26196.54091684  .00000067  00000+0  13006-3 0  9996
2 54662  87.9233 238.3417 0002143  95.6190 264.5188 13.21824025175280
