OBJECT_NAME,OBJECT_ID,EPOCH,MEAN_MOTION,ECCENTRICITY,INCLINATION,RA_OF_ASC_NODE,ARG_OF_PERICENTER,MEAN_ANOMALY,EPHEMERIS_TYPE,CLASSIFICATION_TYPE,NORAD_CAT_ID,ELEMENT_SET_NO,REV_AT_EPOCH,BSTAR,MEAN_MOTION_DOT,MEAN_MOTION_DDOT
ONEWEB-0522,2022-138AD,2026-07-15T19:13:44.861952,13.19723757,.0001955,87.9196,299.2620,105.7220,254.4128,0,U,54140,999,18058,-.56421E-4,-.1E-6,0
ONEWEB-0523,2022-138AE,2026-07-15T17:47:14.170272,13.20772692,.000229,87.9188,268.7512,78.7246,281.4145,0,U,54141,999,18307,.61462E-4,.38E-6,0
ONEWEB-0524,2022-138AF,2026-07-15T17:32:41.843040,13.20772621,.0002896,87.9187,268.7500,91.6655,268.4810,0,U,54142,999,18307,-.35857E-4,-.2E-7,0
ONEWEB-0525,2022-138AG,2026-07-15T19:41:02.825376,13.19723566,.0002233,87.9195,299.2649,110.3266,249.8107,0,U,54143,999,18060,-.12696E-3,-.38E-6,0
ONEWEB-0526,2022-138AH,2026-07-15T18:39:38.496096,13.19723855,.0002149,87.9194,299.2742,103.0642,257.0731,0,U,54144,999,18057,.24371E-3,.111E-5,0
ONEWEB-0529,2022-138AJ,2026-07-15T18:44:12.181056,13.19726354,.0002104,87.9187,299.2805,107.0926,253.0438,0,U,54145,999,18059,.14565E-3,.71E-6,0
ONEWEB-0531,2022-138AK,2026-07-15T04:29:39.853248,13.20773150,.00025526,87.9186,268.8558,80.8268,279.3154,0,U,54146,999,18300,-.62073166E-4,-.12E-6,0
ONEWEB-0535,2022-138AL,2026-07-15T19:31:56.399808,13.19726499,.0001939,87.9195,299.2601,92.4854,267.6501,0,U,54147,999,18061,-.89763E-4,-.23E-6,0
ONEWEB-0536,2022-138AM,2026-07-15T05:59:21.854400,13.20772378,.00027823,87.9175,268.8622,80.0995,280.0453,0,U,54148,999,18300,.15975578E-3,.78E-6,0
ONEWEB-0527,2022-166A,2026-07-15T04:25:24.542976,13.21827112,.00020901,87.9233,238.4249,98.2581,261.8790,0,U,54642,999,17523,-.17355672E-4,.6E-7,0
ONEWEB-0528,2022-166B,2026-07-15T11:42:38.020320,13.21825615,.00021895,87.9235,238.3670,102.2015,257.9365,0,U,54643,999,17528,-.82812663E-4,-.21E-6,0
ONEWEB-0539,2022-166C,2026-07-15T12:37:07.313376,13.21823912,.00018791,87.9239,238.3330,95.9811,264.1537,0,U,54644,999,17528,.62705036E-4,.39E-6,0
ONEWEB-0540,2022-166D,2026-07-15T12:47:00.982464,13.21824094,.00020264,87.9234,238.3603,94.8664,265.2701,0,U,54645,999,17527,-.40765517E-4,-.4E-7,0
ONEWEB-0542,2022-166E,2026-07-15T12:51:40.597056,13.21826309,.00017741,87.9242,238.3303,95.4741,264.6595,0,U,54646,999,17528,-.97776534E-4,-.27E-6,0
ONEWEB-0545,2022-166F,2026-07-15T19:16:49.268928,13.21825675,.0001531,87.9234,238.2866,89.4575,270.6734,0,U,54647,999,17528,-.51061E-4,-.8E-7,0
ONEWEB-0580,2022-166G,2026-07-15T11:24:26.669088,13.21824158,.0001795,87.9230,238.3520,88.9818,271.1521,0,U,54648,999,17528,.28510479E-4,.25E-6,0
ONEWEB-0582,2022-166H,2026-07-15T12:24:59.741568,13.21822616,.00016817,87.9236,238.3356,91.8737,268.2590,0,U,54649,999,17526,.37739584E-3,.169E-5,0
ONEWEB-0583,2022-166J,2026-07-15T12:41:59.279712,13.21826497,.00019815,87.9232,238.3569,94.8524,265.2836,0,U,54650,999,17527,.25553208E-3,.119E-5,0
ONEWEB-0584,2022-166K,2026-07-15T13:11:02.371200,13.21825073,.000204,87.9227,238.3380,95.5753,264.5614,0,U,54651,999,17526,-.29652E-4,.1E-7,0
ONEWEB-0585,2022-166L,2026-07-15T11:55:56.024544,13.21823437,.00022347,87.9235,238.3360,98.4264,261.7123,0,U,54652,999,17526,.8246842E-5,.16E-6,0
ONEWEB-0586,2022-166M,2026-07-15T12:15:19.191456,13.21823982,.00018796,87.9234,238.3585,96.2271,263.9077,0,U,54653,999,17526,.45907644E-4,.32E-6,0
ONEWEB-0587,2022-166N,2026-07-15T12:29:52.799136,13.21826377,.00024292,87.9244,238.3329,98.4895,261.6515,0,U,54654,999,17542,.29581525E-3,.135E-5,0
ONEWEB-0589,2022-166P,2026-07-15T12:10:29.985600,13.21825794,.00014214,87.9234,238.3440,78.6851,281.4442,0,U,54655,999,17528,-.4879765E-4,-.7E-7,0
ONEWEB-0590,2022-166Q,2026-07-15T03:41:35.901600,13.21825754,.00022719,87.9242,238.4076,84.7254,275.4139,0,U,54656,999,17522,.76775677E-4,.45E-6,0
ONEWEB-0591,2022-166R,2026-07-15T13:03:45.116352,13.21825245,.00020804,87.9232,238.3419,93.0802,267.0570,0,U,54657,999,17530,-.67209326E-3,-.265E-5,0
ONEWEB-0592,2022-166S,2026-07-15T13:08:36.818304,13.21823751,.0002032,87.9239,238.3224,96.9759,263.1606,0,U,54658,999,17518,.16067E-3,.79E-6,0
ONEWEB-0593,2022-166T,2026-07-15T11:51:06.516288,13.21826422,.00019159,87.9235,238.3424,98.1276,262.0075,0,U,54659,999,17528,.12226273E-3,.64E-6,0
ONEWEB-0594,2022-166U,2026-07-15T12:20:10.308480,13.21824545,.00022297,87.9236,238.3544,100.6546,259.4839,0,U,54660,999,17530,.28083058E-4,.25E-6,0
ONEWEB-0595,2022-166V,2026-07-15T04:30:15.796512,13.21824868,.00023044,87.9242,238.4022,97.2070,262.9326,0,U,54661,999,17523,-.89882647E-4,-.24E-6,0
ONEWEB-0596,2022-166W,2026-07-15T12:58:55.214976,13.21824025,.00021434,87.9233,238.3417,95.6190,264.5188,0,U,54662,999,17528,.13005889E-3,.67E-6,0
